{
  "type": "FeatureCollection",
  "features": [
    {
      "type": "Feature",
      "properties": {},
      "geometry": {
        "type": "Polygon",
        "coordinates": [
          [
            [15.3744796, 48.2138995],
            [15.374159, 48.2147091],
            [15.3744796, 48.2155411],
            [15.3731465, 48.2156986],
            [15.3678731, 48.2202342],
            [15.3726813, 48.2221215],
            [15.380041, 48.2172888],
            [15.3780841, 48.2154463],
            [15.3762761, 48.2138164],
            [15.3744796, 48.2138995]
          ]
        ]
      }
    }
  ]
}
