{
  "type": "FeatureCollection",
  "features": [
    {
      "type": "Feature",
      "properties": {},
      "geometry": {
        "type": "Polygon",
        "coordinates": [
          [
            [
              15.4429832,
              48.2569392
            ],
            [
              15.4440184,
              48.2539983
            ],
            [
              15.4453988,
              48.2515627
            ],
            [
              15.4440875,
              48.2489892
            ],
            [
              15.4455368,
              48.242141
            ],
            [
              15.4478143,
              48.2378662
            ],
            [
              15.4516793,
              48.2345564
            ],
            [
              15.4553371,
              48.2322118
            ],
            [
              15.4585809,
              48.2299132
            ],
            [
              15.4621698,
              48.2285799
            ],
            [
              15.4663336,
              48.2271854
            ],
            [
              15.4695083,
              48.2246106
            ],
            [
              15.472269,
              48.2247025
            ],
            [
              15.4713028,
              48.2262198
            ],
            [
              15.4700605,
              48.2283807
            ],
            [
              15.4659195,
              48.2299899
            ],
            [
              15.4623996,
              48.2308634
            ],
            [
              15.4513491,
              48.2392466
            ],
            [
              15.4490768,
              48.2427844
            ],
            [
              15.4483115,
              48.2456873
            ],
            [
              15.4474833,
              48.2485827
            ],
            [
              15.4488636,
              48.251432
            ],
            [
              15.4480354,
              48.2539595
            ],
            [
              15.4443421,
              48.2582802
            ],
            [
              15.4429832,
              48.2569392
            ]
          ]
        ]
      }
    }
  ]
}
