{"type": "FeatureCollection", "features":[
{
  "type": "Feature",
  "properties": {},
  "geometry": {
    "type": "Polygon",
    "coordinates": [
      [
        [15.4989497, 48.231492],
        [15.503023, 48.2312749],
        [15.5034304, 48.2380037],
        [15.5120659, 48.2429411],
        [15.5042451, 48.2497226],
        [15.504408, 48.2523264],
        [15.513125, 48.2539463],
        [15.5120659, 48.2558448],
        [15.5040007, 48.254326],
        [15.5040007, 48.2587195],
        [15.4998458, 48.2588822],
        [15.4991126, 48.2498779],
        [15.4922694, 48.2441273],
        [15.4987053, 48.2383761],
        [15.4989497, 48.231492]
      ],
      [
        [15.5016381, 48.2492269],
        [15.5083999, 48.243422],
        [15.5014752, 48.2392985],
        [15.4958539, 48.2439646],
        [15.5016381, 48.2492269]
      ]
    ]
  }
}]
}
