{
  "type": "FeatureCollection",
  "features": [
    {
      "type": "Feature",
      "properties": {},
      "geometry": {
        "type": "Polygon",
        "coordinates": [
          [
            [15.3790071, 48.2201343],
            [15.3785682, 48.217742],
            [15.3813209, 48.2161737],
            [15.3844726, 48.2175825],
            [15.3857492, 48.2160142],
            [15.3814007, 48.2137546],
            [15.3763342, 48.2154559],
            [15.3753767, 48.2184597],
            [15.376015, 48.2205064],
            [15.3790071, 48.2201343]
          ]
        ]
      }
    }
  ]
}
